{"weatherObservation":{"clouds":"few clouds","weatherCondition":"n/a","observation":"KLGA 051551Z 04006KT 10SM FEW250 03/M09 A3048 RMK AO2 SLP319 T00281089","windDirection":40,"ICAO":"KLGA","seaLevelPressure":1031.9,"elevation":11,"countryCode":"US","lng":-73.8833333333333,"temperature":"2.8","dewPoint":"-8.9","windSpeed":"06","humidity":41,"stationName":"New York, La Guardia Airport","datetime":"2009-03-05 15:51:00 GMT","lat":40.7833333333333}}
